NORAD_CAT_ID,OBJECT_NAME,OBJECT_TYPE,EPOCH,MEAN_MOTION,ECCENTRICITY,INCLINATION,RA_OF_ASC_NODE,ARG_OF_PERICENTER,MEAN_ANOMALY,BSTAR,MEAN_MOTION_DOT,MEAN_MOTION_DDOT,TLE_LINE0,TLE_LINE1,TLE_LINE2,SEMIMAJOR_AXIS,PERIOD,APOGEE,PERIGEE,DECAYED
52363.0,STARLINK-3830,PAYLOAD,2023-10-23 20:32:10,15.08850076,0.0001423,53.2152,134.9802,105.671,254.4439,0.00063443,9.826e-05,0.0,0 STARLINK-3830,1 52363U 22045AJ  23296.85567131  .00009826  00000-0  63443-3 0  9998,2 52363  53.2152 134.9802 0001423 105.6710 254.4439 15.08850076 84773,6917.85,95.437,540.699,538.73,0.0
52363.0,STARLINK-3830,PAYLOAD,2023-10-24 04:29:05,15.08837048,0.0001612,53.2151,133.4926,97.8437,262.2738,0.00030427,4.557e-05,0.0,0 STARLINK-3830,1 52363U 22045AJ  23297.18687319  .00004557  00000-0  30427-3 0  9998,2 52363  53.2151 133.4926 0001612  97.8437 262.2738 15.08837048 84820,6917.889,95.438,540.87,538.639,0.0
52363.0,STARLINK-3830,PAYLOAD,2023-10-24 14:01:24,15.0884239,0.0001414,53.2148,131.709,104.3733,255.7416,0.00012433,1.691e-05,0.0,0 STARLINK-3830,1 52363U 22045AJ  23297.58431128  .00001691  00000-0  12433-3 0  9990,2 52363  53.2148 131.7090 0001414 104.3733 255.7416 15.08842390 84884,6917.873,95.437,540.716,538.76,0.0
52363.0,STARLINK-3830,PAYLOAD,2023-10-25 13:52:11,15.08842001,0.0001352,53.2144,127.2484,102.369,257.7454,0.0001748,2.495e-05,0.0,0 STARLINK-3830,1 52363U 22045AJ  23298.57791093  .00002495  00000-0  17480-3 0  9990,2 52363  53.2144 127.2484 0001352 102.3690 257.7454 15.08842001 85039,6917.874,95.437,540.675,538.804,0.0
52363.0,STARLINK-3830,PAYLOAD,2023-10-25 21:49:07,15.08847354,0.0001338,53.2145,125.7615,100.8892,259.225,0.00026787,3.979e-05,0.0,0 STARLINK-3830,1 52363U 22045AJ  23298.90910969  .00003979  00000-0  26787-3 0  9990,2 52363  53.2145 125.7615 0001338 100.8892 259.2250 15.08847354 85082,6917.858,95.437,540.649,538.797,0.0
52363.0,STARLINK-3830,PAYLOAD,2023-10-26 13:42:58,15.0884466,0.0001339,53.2145,122.7873,97.9931,262.1213,0.00021235,3.094e-05,0.0,0 STARLINK-3830,1 52363U 22045AJ  23299.57151069  .00003094  00000-0  21235-3 0  9993,2 52363  53.2145 122.7873 0001339  97.9931 262.1213 15.08844660 85186,6917.866,95.437,540.657,538.805,0.0
52363.0,STARLINK-3830,PAYLOAD,2023-10-26 21:39:53,15.08850086,0.0001331,53.2145,121.3004,97.436,262.6783,0.00027285,4.058e-05,0.0,0 STARLINK-3830,1 52363U 22045AJ  23299.90270772  .00004058  00000-0  27285-3 0  9995,2 52363  53.2145 121.3004 0001331  97.4360 262.6783 15.08850086 85232,6917.85,95.437,540.635,538.794,0.0
52363.0,STARLINK-3830,PAYLOAD,2023-10-26 23:15:17,15.08851443,0.0001326,53.2144,121.003,97.3387,262.7756,0.00029395,4.395e-05,0.0,0 STARLINK-3830,1 52363U 22045AJ  23299.96894699  .00004395  00000-0  29395-3 0  9999,2 52363  53.2144 121.0030 0001326  97.3387 262.7756 15.08851443 85249,6917.845,95.437,540.628,538.793,0.0
52363.0,STARLINK-3830,PAYLOAD,2023-10-27 11:58:22,15.08841304,0.0001329,53.2145,118.6238,94.9514,265.163,9.2028e-05,1.177e-05,0.0,0 STARLINK-3830,1 52363U 22045AJ  23300.49887062  .00001177  00000-0  92028-4 0  9995,2 52363  53.2145 118.6238 0001329  94.9514 265.1630 15.08841304 85322,6917.876,95.437,540.661,538.822,0.0
52363.0,STARLINK-3830,PAYLOAD,2023-10-27 21:30:41,15.0884709,0.000135,53.215,116.8395,93.9494,266.1653,0.0001473,2.058e-05,0.0,0 STARLINK-3830,1 52363U 22045AJ  23300.89630793  .00002058  00000-0  14730-3 0  9998,2 52363  53.2150 116.8395 0001350  93.9494 266.1653 15.08847090 85382,6917.859,95.437,540.658,538.79,0.0
52363.0,STARLINK-3830,PAYLOAD,2023-10-28 05:27:36,15.0884173,0.0001354,53.2149,115.353,89.2169,270.8978,4.552e-05,4.37e-06,0.0,0 STARLINK-3830,1 52363U 22045AJ  23301.22751037  .00000437  00000-0  45520-4 0  9992,2 52363  53.2149 115.3530 0001354  89.2169 270.8978 15.08841730 85439,6917.875,95.437,540.677,538.803,0.0
52363.0,STARLINK-3830,PAYLOAD,2023-10-28 18:10:42,15.08839826,0.000124,53.2163,112.9728,100.2561,259.8571,8.1001e-05,1.001e-05,0.0,0 STARLINK-3830,1 52363U 22045AJ  23301.75743104  .00001001  00000-0  81001-4 0  9998,2 52363  53.2163 112.9728 0001240 100.2561 259.8571 15.08839826 85519,6917.881,95.438,540.604,538.888,0.0
52363.0,STARLINK-3830,PAYLOAD,2023-10-29 14:50:42,15.088458,0.0001459,53.2163,109.1065,99.8817,260.234,0.00010018,1.307e-05,0.0,0 STARLINK-3830,1 52363U 22045AJ  23302.61854617  .00001307  00000-0  10018-3 0  9994,2 52363  53.2163 109.1065 0001459  99.8817 260.2340 15.08845800 85643,6917.863,95.437,540.737,538.718,0.0
52363.0,STARLINK-3830,PAYLOAD,2023-10-29 18:01:28,15.08848806,0.0001394,53.2167,108.5146,90.806,269.3091,0.00012436,1.692e-05,0.0,0 STARLINK-3830,1 52363U 22045AJ  23302.75102419  .00001692  00000-0  12436-3 0  9998,2 52363  53.2167 108.5146 0001394  90.8060 269.3091 15.08848806 85663,6917.853,95.437,540.683,538.754,0.0
52363.0,STARLINK-3830,PAYLOAD,2023-10-29 21:12:14,15.08852022,0.0001396,53.2156,107.9189,92.9139,267.2013,0.00021427,3.125e-05,0.0,0 STARLINK-3830,1 52363U 22045AJ  23302.88350417  .00003125  00000-0  21427-3 0  9998,2 52363  53.2156 107.9189 0001396  92.9139 267.2013 15.08852022 85681,6917.844,95.437,540.674,538.743,0.0
52363.0,STARLINK-3830,PAYLOAD,2023-10-30 11:30:43,15.08837786,0.0001749,53.2168,105.2405,92.9446,267.1746,5.2041e-05,5.4e-06,0.0,0 STARLINK-3830,1 52363U 22045AJ  23303.47967244  .00000540  00000-0  52041-4 0  9991,2 52363  53.2168 105.2405 0001749  92.9446 267.1746 15.08837786 85771,6917.887,95.438,540.962,538.542,0.0
52363.0,STARLINK-3830,PAYLOAD,2023-10-30 19:27:39,15.08839727,0.0001422,53.217,103.7539,88.9277,271.1878,5.1056e-05,5.25e-06,0.0,0 STARLINK-3830,1 52363U 22045AJ  23303.81087175  .00000525  00000-0  51056-4 0  9993,2 52363  53.2170 103.7539 0001422  88.9277 271.1878 15.08839727 85824,6917.881,95.438,540.73,538.763,0.0
52363.0,STARLINK-3830,PAYLOAD,2023-10-31 14:32:17,15.08835995,0.0001391,53.2163,100.1872,92.9946,267.1205,-5.7173e-05,-1.198e-05,0.0,0 STARLINK-3830,1 52363U 22045AJ  23304.60575534 -.00001198  00000-0 -57173-4 0  9997,2 52363  53.2163 100.1872 0001391  92.9946 267.1205 15.08835995 85945,6917.893,95.438,540.72,538.795,0.0
52363.0,STARLINK-3830,PAYLOAD,2023-10-31 17:43:03,15.08836875,0.00014,53.2169,99.593,95.9278,264.1874,-2.587e-06,-3.29e-06,0.0,0 STARLINK-3830,1 52363U 22045AJ  23304.73823511 -.00000329  00000-0 -25870-5 0  9997,2 52363  53.2169  99.5930 0001400  95.9278 264.1874 15.08836875 85968,6917.89,95.438,540.723,538.786,0.0
52363.0,STARLINK-3830,PAYLOAD,2023-11-01 14:23:04,15.08836473,0.0001488,53.2159,95.7271,94.1806,265.9356,9.6223e-05,1.244e-05,0.0,0 STARLINK-3830,1 52363U 22045AJ  23305.59935865  .00001244  00000-0  96223-4 0  9992,2 52363  53.2159  95.7271 0001488  94.1806 265.9356 15.08836473 86090,6917.891,95.438,540.786,538.727,0.0
52363.0,STARLINK-3830,PAYLOAD,2023-11-01 19:09:13,15.08844416,0.0001326,53.2159,94.8352,93.5555,266.5589,0.00021091,3.071e-05,0.0,0 STARLINK-3830,1 52363U 22045AJ  23305.79807502  .00003071  00000-0  21091-3 0  9990,2 52363  53.2159  94.8352 0001326  93.5555 266.5589 15.08844416 86120,6917.867,95.437,540.649,538.815,0.0
52363.0,STARLINK-3830,PAYLOAD,2023-11-02 14:13:51,15.08840377,0.0001245,53.2154,91.2661,104.3689,255.7441,0.00015218,2.135e-05,0.0,0 STARLINK-3830,1 52363U 22045AJ  23306.59295742  .00002135  00000-0  15218-3 0  9990,2 52363  53.2154  91.2661 0001245 104.3689 255.7441 15.08840377 86240,6917.879,95.438,540.606,538.883,0.0
52363.0,STARLINK-3830,PAYLOAD,2023-11-02 17:24:37,15.08848273,0.0001252,53.216,90.6698,97.7709,262.3425,0.00019144,2.761e-05,0.0,0 STARLINK-3830,1 52363U 22045AJ  23306.72543347  .00002761  00000-0  19144-3 0  9999,2 52363  53.2160  90.6698 0001252  97.7709 262.3425 15.08848273 86267,6917.855,95.437,540.586,538.854,0.0
52363.0,STARLINK-3830,PAYLOAD,2023-11-03 02:56:56,15.08842101,0.0001336,53.2164,88.8872,78.3461,281.7681,0.00011381,1.524e-05,0.0,0 STARLINK-3830,1 52363U 22045AJ  23307.12287781  .00001524  00000-0  11381-3 0  9992,2 52363  53.2164  88.8872 0001336  78.3461 281.7681 15.08842101 86327,6917.874,95.437,540.663,538.815,0.0
52363.0,STARLINK-3830,PAYLOAD,2023-11-03 14:04:38,15.08839299,0.0001379,53.2156,86.8071,78.3235,281.7912,6.2852e-05,7.12e-06,0.0,0 STARLINK-3830,1 52363U 22045AJ  23307.58656004  .00000712  00000-0  62852-4 0  9998,2 52363  53.2156  86.8071 0001379  78.3235 281.7912 15.08839299 86391,6917.883,95.438,540.702,538.794,0.0
52363.0,STARLINK-3830,PAYLOAD,2023-11-03 15:40:01,15.08841193,0.0001413,53.2157,86.5099,76.0752,284.0397,4.2963e-05,3.96e-06,0.0,0 STARLINK-3830,1 52363U 22045AJ  23307.65279930  .00000396  00000-0  42963-4 0  9994,2 52363  53.2157  86.5099 0001413  76.0752 284.0397 15.08841193 86408,6917.877,95.437,540.719,538.764,0.0
52363.0,STARLINK-3830,PAYLOAD,2023-11-04 09:09:15,15.08836778,0.0001249,53.2181,83.2377,84.129,275.9844,0.00038689,5.874e-05,0.0,0 STARLINK-3830,1 52363U 22045AJ  23308.38143081  .00005874  00000-0  38689-3 0  9997,2 52363  53.2181  83.2377 0001249  84.1290 275.9844 15.08836778 86513,6917.89,95.438,540.619,538.891,0.0
52363.0,STARLINK-3830,PAYLOAD,2023-11-04 13:55:25,15.08850992,0.000147,53.2168,82.3467,75.6419,284.4736,0.00046033,7.048e-05,0.0,0 STARLINK-3830,1 52363U 22045AJ  23308.58015129  .00007048  00000-0  46033-3 0  9997,2 52363  53.2168  82.3467 0001470  75.6419 284.4736 15.08850992 86544,6917.847,95.437,540.729,538.695,0.0
52363.0,STARLINK-3830,PAYLOAD,2023-11-04 15:30:47,15.08860782,0.0001267,53.216,82.0486,79.4344,280.679,0.00026751,3.974e-05,0.0,0 STARLINK-3830,1 52363U 22045AJ  23308.64638529  .00003974  00000-0  26751-3 0  9998,2 52363  53.2160  82.0486 0001267  79.4344 280.6790 15.08860782 86554,6917.817,95.436,540.558,538.805,0.0
52363.0,STARLINK-3830,PAYLOAD,2023-11-05 12:10:48,15.08845718,0.0001237,53.2168,78.1827,74.4567,285.6562,0.00011836,1.597e-05,0.0,0 STARLINK-3830,1 52363U 22045AJ  23309.50751107  .00001597  00000-0  11836-3 0  9999,2 52363  53.2168  78.1827 0001237  74.4567 285.6562 15.08845718 86684,6917.863,95.437,540.584,538.872,0.0
